<?xml version="1.0" encoding="UTF-8"?>
<ndm xmlns:xsi="http://www.w3.org/2001/XMLSchema-instance" xsi:noNamespaceSchemaLocation="https://sanaregistry.org/r/ndmxml_unqualified/ndmxml-2.0.0-master-2.0.xsd">
<omm id="CCSDS_OMM_VERS" version="2.0">
<header><CREATION_DATE/><ORIGINATOR/></header><body><segment><metadata><OBJECT_NAME>IRIDIUM 26</OBJECT_NAME><OBJECT_ID>1997-043A</OBJECT_ID><CENTER_NAME>EARTH</CENTER_NAME><REF_FRAME>TEME</REF_FRAME><TIME_SYSTEM>UTC</TIME_SYSTEM><MEAN_ELEMENT_THEORY>SGP4</MEAN_ELEMENT_THEORY></metadata><data><meanElements><EPOCH>2025-07-20T22:54:46.748736</EPOCH><MEAN_MOTION>14.37165056</MEAN_MOTION><ECCENTRICITY>.0002118</ECCENTRICITY><INCLINATION>86.3945</INCLINATION><RA_OF_ASC_NODE>96.4379</RA_OF_ASC_NODE><ARG_OF_PERICENTER>80.0197</ARG_OF_PERICENTER><MEAN_ANOMALY>280.1239</MEAN_ANOMALY></meanElements><tleParameters><EPHEMERIS_TYPE>0</EPHEMERIS_TYPE><CLASSIFICATION_TYPE>U</CLASSIFICATION_TYPE><NORAD_CAT_ID>24903</NORAD_CAT_ID><ELEMENT_SET_NO>999</ELEMENT_SET_NO><REV_AT_EPOCH>46159</REV_AT_EPOCH><BSTAR>.75415E-4</BSTAR><MEAN_MOTION_DOT>.244E-5</MEAN_MOTION_DOT><MEAN_MOTION_DDOT>0</MEAN_MOTION_DDOT></tleParameters></data></segment></body></omm>
<omm id="CCSDS_OMM_VERS" version="2.0">
<header><CREATION_DATE/><ORIGINATOR/></header><body><segment><metadata><OBJECT_NAME>IRIDIUM 22</OBJECT_NAME><OBJECT_ID>1997-043E</OBJECT_ID><CENTER_NAME>EARTH</CENTER_NAME><REF_FRAME>TEME</REF_FRAME><TIME_SYSTEM>UTC</TIME_SYSTEM><MEAN_ELEMENT_THEORY>SGP4</MEAN_ELEMENT_THEORY></metadata><data><meanElements><EPOCH>2025-07-21T04:35:19.342176</EPOCH><MEAN_MOTION>14.35975262</MEAN_MOTION><ECCENTRICITY>.0002092</ECCENTRICITY><INCLINATION>86.3953</INCLINATION><RA_OF_ASC_NODE>99.9084</RA_OF_ASC_NODE><ARG_OF_PERICENTER>85.3891</ARG_OF_PERICENTER><MEAN_ANOMALY>274.7545</MEAN_ANOMALY></meanElements><tleParameters><EPHEMERIS_TYPE>0</EPHEMERIS_TYPE><CLASSIFICATION_TYPE>U</CLASSIFICATION_TYPE><NORAD_CAT_ID>24907</NORAD_CAT_ID><ELEMENT_SET_NO>999</ELEMENT_SET_NO><REV_AT_EPOCH>46164</REV_AT_EPOCH><BSTAR>.77713E-4</BSTAR><MEAN_MOTION_DOT>.245E-5</MEAN_MOTION_DOT><MEAN_MOTION_DDOT>0</MEAN_MOTION_DDOT></tleParameters></data></segment></body></omm>
<omm id="CCSDS_OMM_VERS" version="2.0">
<header><CREATION_DATE/><ORIGINATOR/></header><body><segment><metadata><OBJECT_NAME>DUMMY MASS 1</OBJECT_NAME><OBJECT_ID>1997-048A</OBJECT_ID><CENTER_NAME>EARTH</CENTER_NAME><REF_FRAME>TEME</REF_FRAME><TIME_SYSTEM>UTC</TIME_SYSTEM><MEAN_ELEMENT_THEORY>SGP4</MEAN_ELEMENT_THEORY></metadata><data><meanElements><EPOCH>2025-07-20T12:37:23.119392</EPOCH><MEAN_MOTION>14.87007420</MEAN_MOTION><ECCENTRICITY>.0008122</ECCENTRICITY><INCLINATION>86.3363</INCLINATION><RA_OF_ASC_NODE>119.9199</RA_OF_ASC_NODE><ARG_OF_PERICENTER>43.9229</ARG_OF_PERICENTER><MEAN_ANOMALY>316.2640</MEAN_ANOMALY></meanElements><tleParameters><EPHEMERIS_TYPE>0</EPHEMERIS_TYPE><CLASSIFICATION_TYPE>U</CLASSIFICATION_TYPE><NORAD_CAT_ID>24925</NORAD_CAT_ID><ELEMENT_SET_NO>999</ELEMENT_SET_NO><REV_AT_EPOCH>51008</REV_AT_EPOCH><BSTAR>.32664E-4</BSTAR><MEAN_MOTION_DOT>.321E-5</MEAN_MOTION_DOT><MEAN_MOTION_DDOT>0</MEAN_MOTION_DDOT></tleParameters></data></segment></body></omm>
<omm id="CCSDS_OMM_VERS" version="2.0">
<header><CREATION_DATE/><ORIGINATOR/></header><body><segment><metadata><OBJECT_NAME>DUMMY MASS 2</OBJECT_NAME><OBJECT_ID>1997-048B</OBJECT_ID><CENTER_NAME>EARTH</CENTER_NAME><REF_FRAME>TEME</REF_FRAME><TIME_SYSTEM>UTC</TIME_SYSTEM><MEAN_ELEMENT_THEORY>SGP4</MEAN_ELEMENT_THEORY></metadata><data><meanElements><EPOCH>2025-07-21T12:04:39.986112</EPOCH><MEAN_MOTION>14.86760045</MEAN_MOTION><ECCENTRICITY>.0009129</ECCENTRICITY><INCLINATION>86.3365</INCLINATION><RA_OF_ASC_NODE>121.0817</RA_OF_ASC_NODE><ARG_OF_PERICENTER>49.0936</ARG_OF_PERICENTER><MEAN_ANOMALY>311.1078</MEAN_ANOMALY></meanElements><tleParameters><EPHEMERIS_TYPE>0</EPHEMERIS_TYPE><CLASSIFICATION_TYPE>U</CLASSIFICATION_TYPE><NORAD_CAT_ID>24926</NORAD_CAT_ID><ELEMENT_SET_NO>999</ELEMENT_SET_NO><REV_AT_EPOCH>51024</REV_AT_EPOCH><BSTAR>.3495E-4</BSTAR><MEAN_MOTION_DOT>.34E-5</MEAN_MOTION_DOT><MEAN_MOTION_DDOT>0</MEAN_MOTION_DDOT></tleParameters></data></segment></body></omm>
<omm id="CCSDS_OMM_VERS" version="2.0">
<header><CREATION_DATE/><ORIGINATOR/></header><body><segment><metadata><OBJECT_NAME>IRIDIUM 29</OBJECT_NAME><OBJECT_ID>1997-051A</OBJECT_ID><CENTER_NAME>EARTH</CENTER_NAME><REF_FRAME>TEME</REF_FRAME><TIME_SYSTEM>UTC</TIME_SYSTEM><MEAN_ELEMENT_THEORY>SGP4</MEAN_ELEMENT_THEORY></metadata><data><meanElements><EPOCH>2025-07-20T20:29:22.543296</EPOCH><MEAN_MOTION>14.36488947</MEAN_MOTION><ECCENTRICITY>.0002273</ECCENTRICITY><INCLINATION>86.3985</INCLINATION><RA_OF_ASC_NODE>129.7830</RA_OF_ASC_NODE><ARG_OF_PERICENTER>90.3685</ARG_OF_PERICENTER><MEAN_ANOMALY>269.7772</MEAN_ANOMALY></meanElements><tleParameters><EPHEMERIS_TYPE>0</EPHEMERIS_TYPE><CLASSIFICATION_TYPE>U</CLASSIFICATION_TYPE><NORAD_CAT_ID>24944</NORAD_CAT_ID><ELEMENT_SET_NO>999</ELEMENT_SET_NO><REV_AT_EPOCH>45810</REV_AT_EPOCH><BSTAR>.96366E-4</BSTAR><MEAN_MOTION_DOT>.302E-5</MEAN_MOTION_DOT><MEAN_MOTION_DDOT>0</MEAN_MOTION_DDOT></tleParameters></data></segment></body></omm>
<omm id="CCSDS_OMM_VERS" version="2.0">
<header><CREATION_DATE/><ORIGINATOR/></header><body><segment><metadata><OBJECT_NAME>IRIDIUM 33</OBJECT_NAME><OBJECT_ID>1997-051C</OBJECT_ID><CENTER_NAME>EARTH</CENTER_NAME><REF_FRAME>TEME</REF_FRAME><TIME_SYSTEM>UTC</TIME_SYSTEM><MEAN_ELEMENT_THEORY>SGP4</MEAN_ELEMENT_THEORY></metadata><data><meanElements><EPOCH>2025-07-20T20:56:25.161216</EPOCH><MEAN_MOTION>14.34909284</MEAN_MOTION><ECCENTRICITY>.0007119</ECCENTRICITY><INCLINATION>86.3901</INCLINATION><RA_OF_ASC_NODE>129.0383</RA_OF_ASC_NODE><ARG_OF_PERICENTER>344.9538</ARG_OF_PERICENTER><MEAN_ANOMALY>15.1445</MEAN_ANOMALY></meanElements><tleParameters><EPHEMERIS_TYPE>0</EPHEMERIS_TYPE><CLASSIFICATION_TYPE>U</CLASSIFICATION_TYPE><NORAD_CAT_ID>24946</NORAD_CAT_ID><ELEMENT_SET_NO>999</ELEMENT_SET_NO><REV_AT_EPOCH>45757</REV_AT_EPOCH><BSTAR>.80042E-4</BSTAR><MEAN_MOTION_DOT>.247E-5</MEAN_MOTION_DOT><MEAN_MOTION_DDOT>0</MEAN_MOTION_DDOT></tleParameters></data></segment></body></omm>
<omm id="CCSDS_OMM_VERS" version="2.0">
<header><CREATION_DATE/><ORIGINATOR/></header><body><segment><metadata><OBJECT_NAME>IRIDIUM 28</OBJECT_NAME><OBJECT_ID>1997-051E</OBJECT_ID><CENTER_NAME>EARTH</CENTER_NAME><REF_FRAME>TEME</REF_FRAME><TIME_SYSTEM>UTC</TIME_SYSTEM><MEAN_ELEMENT_THEORY>SGP4</MEAN_ELEMENT_THEORY></metadata><data><meanElements><EPOCH>2025-07-20T21:00:57.951072</EPOCH><MEAN_MOTION>14.37404317</MEAN_MOTION><ECCENTRICITY>.0002111</ECCENTRICITY><INCLINATION>86.3988</INCLINATION><RA_OF_ASC_NODE>127.2709</RA_OF_ASC_NODE><ARG_OF_PERICENTER>72.2877</ARG_OF_PERICENTER><MEAN_ANOMALY>287.8550</MEAN_ANOMALY></meanElements><tleParameters><EPHEMERIS_TYPE>0</EPHEMERIS_TYPE><CLASSIFICATION_TYPE>U</CLASSIFICATION_TYPE><NORAD_CAT_ID>24948</NORAD_CAT_ID><ELEMENT_SET_NO>999</ELEMENT_SET_NO><REV_AT_EPOCH>45868</REV_AT_EPOCH><BSTAR>.80558E-4</BSTAR><MEAN_MOTION_DOT>.26E-5</MEAN_MOTION_DOT><MEAN_MOTION_DDOT>0</MEAN_MOTION_DDOT></tleParameters></data></segment></body></omm>
<omm id="CCSDS_OMM_VERS" version="2.0">
<header><CREATION_DATE/><ORIGINATOR/></header><body><segment><metadata><OBJECT_NAME>IRIDIUM 36</OBJECT_NAME><OBJECT_ID>1997-056C</OBJECT_ID><CENTER_NAME>EARTH</CENTER_NAME><REF_FRAME>TEME</REF_FRAME><TIME_SYSTEM>UTC</TIME_SYSTEM><MEAN_ELEMENT_THEORY>SGP4</MEAN_ELEMENT_THEORY></metadata><data><meanElements><EPOCH>2025-07-21T09:22:26.150880</EPOCH><MEAN_MOTION>14.37630479</MEAN_MOTION><ECCENTRICITY>.0002013</ECCENTRICITY><INCLINATION>86.4011</INCLINATION><RA_OF_ASC_NODE>158.6404</RA_OF_ASC_NODE><ARG_OF_PERICENTER>85.9276</ARG_OF_PERICENTER><MEAN_ANOMALY>274.2152</MEAN_ANOMALY></meanElements><tleParameters><EPHEMERIS_TYPE>0</EPHEMERIS_TYPE><CLASSIFICATION_TYPE>U</CLASSIFICATION_TYPE><NORAD_CAT_ID>24967</NORAD_CAT_ID><ELEMENT_SET_NO>999</ELEMENT_SET_NO><REV_AT_EPOCH>45713</REV_AT_EPOCH><BSTAR>.97991E-4</BSTAR><MEAN_MOTION_DOT>.314E-5</MEAN_MOTION_DOT><MEAN_MOTION_DDOT>0</MEAN_MOTION_DDOT></tleParameters></data></segment></body></omm>

</ndm>
