IRIDIUM 26              
1 24903U 97043A   25201.95470774  .00000244  00000+0  75415-4 0  9999
2 24903  86.3945  96.4379 0002118  80.0197 280.1239 14.37165056461598
IRIDIUM 22              
1 24907U 97043E   25202.19119609  .00000245  00000+0  77713-4 0  9991
2 24907  86.3953  99.9084 0002092  85.3891 274.7545 14.35975262461643
DUMMY MASS 1            
1 24925U 97048A   25201.52596203  .00000321  00000+0  32664-4 0  9992
2 24925  86.3363 119.9199 0008122  43.9229 316.2640 14.87007420510083
DUMMY MASS 2            
1 24926U 97048B   25202.50324058  .00000340  00000+0  34950-4 0  9990
2 24926  86.3365 121.0817 0009129  49.0936 311.1078 14.86760045510242
IRIDIUM 29              
1 24944U 97051A   25201.85373314  .00000302  00000+0  96366-4 0  9997
2 24944  86.3985 129.7830 0002273  90.3685 269.7772 14.36488947458101
IRIDIUM 33              
1 24946U 97051C   25201.87251344  .00000247  00000+0  80042-4 0  9991
2 24946  86.3901 129.0383 0007119 344.9538  15.1445 14.34909284457576
IRIDIUM 28              
1 24948U 97051E   25201.87567073  .00000260  00000+0  80558-4 0  9999
2 24948  86.3988 127.2709 0002111  72.2877 287.8550 14.37404317458687
IRIDIUM 36              
1 24967U 97056C   25202.39058045  .00000314  00000+0  97991-4 0  9996
2 24967  86.4011 158.6404 0002013  85.9276 274.2152 14.37630479457138
